{"type": "FeatureCollection", "features": [ {"type": "Feature", "properties": {"norad_id": 66568, "name": "STARLINK-35803", "group": "last-30-days", "lat": 34.20766962809734, "lon": 163.16230877744476, "alt_km": 410.61411603848137, "timestamp": "2025-12-13T13:34:33.864196+00:00", "meta": {"OBJECT_NAME": "STARLINK-35803", "OBJECT_ID": "2025-268M", "EPOCH": "2025-12-12T20:00:01.999872", "MEAN_MOTION": 15.50644849, "ECCENTRICITY": 0.0001643, "INCLINATION": 43.0001, "RA_OF_ASC_NODE": 120.6013, "ARG_OF_PERICENTER": 282.7103, "MEAN_ANOMALY": 0.2057, "EPHEMERIS_TYPE": 0, "CLASSIFICATION_TYPE": "U", "NORAD_CAT_ID": 66568, "ELEMENT_SET_NO": 999, "REV_AT_EPOCH": 468, "BSTAR": -0.0021195054, "MEAN_MOTION_DOT": -0.00123039, "MEAN_MOTION_DDOT": 0}, "tle": {"line1": "1 66568U 25268M   25346.83335648 -.00123039  00000+0 -21195-2 0  9993", "line2": "2 66568  43.0001 120.6013 0001643 282.7103   0.2057 15.50644849  4689"}}, "geometry": {"type": "Point", "coordinates": [163.16230877744476, 34.20766962809734]}}, {"type": "Feature", "properties": {"norad_id": 66569, "name": "STARLINK-35835", "group": "last-30-days", "lat": 35.08965348663629, "lon": 165.24304621145248, "alt_km": 410.65906320754675, "timestamp": "2025-12-13T13:34:33.864205+00:00", "meta": {"OBJECT_NAME": "STARLINK-35835", "OBJECT_ID": "2025-268N", "EPOCH": "2025-12-12T20:00:01.999872", "MEAN_MOTION": 15.50617099, "ECCENTRICITY": 0.00017115, "INCLINATION": 43.0001, "RA_OF_ASC_NODE": 120.5962, "ARG_OF_PERICENTER": 269.8708, "MEAN_ANOMALY": 14.9869, "EPHEMERIS_TYPE": 0, "CLASSIFICATION_TYPE": "U", "NORAD_CAT_ID": 66569, "ELEMENT_SET_NO": 999, "REV_AT_EPOCH": 468, "BSTAR": -0.0015764404, "MEAN_MOTION_DOT": -0.00091873, "MEAN_MOTION_DDOT": 0}, "tle": {"line1": "1 66569U 25268N   25346.83335648 -.00091873  00000+0 -15764-2 0  9999", "line2": "2 66569  43.0001 120.5962 0001711 269.8708  14.9869 15.50617099  4685"}}, "geometry": {"type": "Point", "coordinates": [165.24304621145248, 35.08965348663629]}}, {"type": "Feature", "properties": {"norad_id": 66570, "name": "STARLINK-35834", "group": "last-30-days", "lat": 35.920861154205234, "lon": 167.33115754425768, "alt_km": 410.58254989123543, "timestamp": "2025-12-13T13:34:33.864215+00:00", "meta": {"OBJECT_NAME": "STARLINK-35834", "OBJECT_ID": "2025-268P", "EPOCH": "2025-12-12T20:00:01.999872", "MEAN_MOTION": 15.50649758, "ECCENTRICITY": 0.0001444, "INCLINATION": 43.0002, "RA_OF_ASC_NODE": 120.5913, "ARG_OF_PERICENTER": 260.297, "MEAN_ANOMALY": 26.4566, "EPHEMERIS_TYPE": 0, "CLASSIFICATION_TYPE": "U", "NORAD_CAT_ID": 66570, "ELEMENT_SET_NO": 999, "REV_AT_EPOCH": 468, "BSTAR": -0.0023172141, "MEAN_MOTION_DOT": -0.00134314, "MEAN_MOTION_DDOT": 0}, "tle": {"line1": "1 66570U 25268P   25346.83335648 -.00134314  00000+0 -23172-2 0  9991", "line2": "2 66570  43.0002 120.5913 0001444 260.2970  26.4566 15.50649758  4682"}}, "geometry": {"type": "Point", "coordinates": [167.33115754425768, 35.920861154205234]}}, {"type": "Feature", "properties": {"norad_id": 66571, "name": "STARLINK-35836", "group": "last-30-days", "lat": 36.74493762249785, "lon": 169.54648100951496, "alt_km": 410.1505173316973, "timestamp": "2025-12-13T13:34:33.864224+00:00", "meta": {"OBJECT_NAME": "STARLINK-35836", "OBJECT_ID": "2025-268Q", "EPOCH": "2025-12-12T20:00:01.999872", "MEAN_MOTION": 15.50592722, "ECCENTRICITY": 0.00017082, "INCLINATION": 43.0002, "RA_OF_ASC_NODE": 120.5864, "ARG_OF_PERICENTER": 283.1071, "MEAN_ANOMALY": 5.591, "EPHEMERIS_TYPE": 0, "CLASSIFICATION_TYPE": "U", "NORAD_CAT_ID": 66571, "ELEMENT_SET_NO": 999, "REV_AT_EPOCH": 468, "BSTAR": -0.00085406017, "MEAN_MOTION_DOT": -0.00050151, "MEAN_MOTION_DDOT": 0}, "tle": {"line1": "1 66571U 25268Q   25346.83335648 -.00050151  00000+0 -85406-3 0  9997", "line2": "2 66571  43.0002 120.5864 0001708 283.1071   5.5910 15.50592722  4686"}}, "geometry": {"type": "Point", "coordinates": [169.54648100951496, 36.74493762249785]}}, {"type": "Feature", "properties": {"norad_id": 66572, "name": "STARLINK-35870", "group": "last-30-days", "lat": 37.49787700816746, "lon": 171.72274331323817, "alt_km": 410.2552340986631, "timestamp": "2025-12-13T13:34:33.864233+00:00", "meta": {"OBJECT_NAME": "STARLINK-35870", "OBJECT_ID": "2025-268R", "EPOCH": "2025-12-12T20:00:01.999872", "MEAN_MOTION": 15.50613092, "ECCENTRICITY": 0.00016071, "INCLINATION": 43.0002, "RA_OF_ASC_NODE": 120.5827, "ARG_OF_PERICENTER": 272.0893, "MEAN_ANOMALY": 18.5258, "EPHEMERIS_TYPE": 0, "CLASSIFICATION_TYPE": "U", "NORAD_CAT_ID": 66572, "ELEMENT_SET_NO": 999, "REV_AT_EPOCH": 468, "BSTAR": -0.0015162117, "MEAN_MOTION_DOT": -0.00088402, "MEAN_MOTION_DDOT": 0}, "tle": {"line1": "1 66572U 25268R   25346.83335648 -.00088402  00000+0 -15162-2 0  9999", "line2": "2 66572  43.0002 120.5827 0001607 272.0893  18.5258 15.50613092  4686"}}, "geometry": {"type": "Point", "coordinates": [171.72274331323817, 37.49787700816746]}}, {"type": "Feature", "properties": {"norad_id": 66573, "name": "STARLINK-35650", "group": "last-30-days", "lat": 38.267780444413454, "lon": 174.1279555623161, "alt_km": 409.4249402119958, "timestamp": "2025-12-13T13:34:33.864243+00:00", "meta": {"OBJECT_NAME": "STARLINK-35650", "OBJECT_ID": "2025-268S", "EPOCH": "2025-12-12T20:00:01.999872", "MEAN_MOTION": 15.50494369, "ECCENTRICITY": 0.00014639, "INCLINATION": 43.0002, "RA_OF_ASC_NODE": 120.5766, "ARG_OF_PERICENTER": 278.9023, "MEAN_ANOMALY": 13.6688, "EPHEMERIS_TYPE": 0, "CLASSIFICATION_TYPE": "U", "NORAD_CAT_ID": 66573, "ELEMENT_SET_NO": 999, "REV_AT_EPOCH": 468, "BSTAR": 0.0020870866, "MEAN_MOTION_DOT": 0.00123677, "MEAN_MOTION_DDOT": 0}, "tle": {"line1": "1 66573U 25268S   25346.83335648  .00123677  00000+0  20871-2 0  9995", "line2": "2 66573  43.0002 120.5766 0001463 278.9023  13.6688 15.50494369  4686"}}, "geometry": {"type": "Point", "coordinates": [174.1279555623161, 38.267780444413454]}}, {"type": "Feature", "properties": {"norad_id": 66574, "name": "STARLINK-35812", "group": "last-30-days", "lat": 38.89527729584328, "lon": 176.2563066755075, "alt_km": 409.9771357144655, "timestamp": "2025-12-13T13:34:33.864253+00:00", "meta": {"OBJECT_NAME": "STARLINK-35812", "OBJECT_ID": "2025-268T", "EPOCH": "2025-12-12T20:00:01.999872", "MEAN_MOTION": 15.50625026, "ECCENTRICITY": 0.00014264, "INCLINATION": 43.0003, "RA_OF_ASC_NODE": 120.5714, "ARG_OF_PERICENTER": 272.467, "MEAN_ANOMALY": 21.9696, "EPHEMERIS_TYPE": 0, "CLASSIFICATION_TYPE": "U", "NORAD_CAT_ID": 66574, "ELEMENT_SET_NO": 999, "REV_AT_EPOCH": 468, "BSTAR": -0.0017022193, "MEAN_MOTION_DOT": -0.0009911, "MEAN_MOTION_DDOT": 0}, "tle": {"line1": "1 66574U 25268T   25346.83335648 -.00099110  00000+0 -17022-2 0  9996", "line2": "2 66574  43.0003 120.5714 0001426 272.4670  21.9696 15.50625026  4684"}}, "geometry": {"type": "Point", "coordinates": [176.2563066755075, 38.89527729584328]}}, {"type": "Feature", "properties": {"norad_id": 66575, "name": "STARLINK-35810", "group": "last-30-days", "lat": 39.53462659094047, "lon": 178.62203594249152, "alt_km": 409.67366104233497, "timestamp": "2025-12-13T13:34:33.864262+00:00", "meta": {"OBJECT_NAME": "STARLINK-35810", "OBJECT_ID": "2025-268U", "EPOCH": "2025-12-12T20:00:01.999872", "MEAN_MOTION": 15.5059521, "ECCENTRICITY": 0.00015191, "INCLINATION": 43.0002, "RA_OF_ASC_NODE": 120.5675, "ARG_OF_PERICENTER": 287.5356, "MEAN_ANOMALY": 8.8288, "EPHEMERIS_TYPE": 0, "CLASSIFICATION_TYPE": "U", "NORAD_CAT_ID": 66575, "ELEMENT_SET_NO": 999, "REV_AT_EPOCH": 468, "BSTAR": -0.00091983174, "MEAN_MOTION_DOT": -0.00053964, "MEAN_MOTION_DDOT": 0}, "tle": {"line1": "1 66575U 25268U   25346.83335648 -.00053964  00000+0 -91983-3 0  9993", "line2": "2 66575  43.0002 120.5675 0001519 287.5356   8.8288 15.50595210  4683"}}, "geometry": {"type": "Point", "coordinates": [178.62203594249152, 39.53462659094047]}}, {"type": "Feature", "properties": {"norad_id": 66576, "name": "STARLINK-35814", "group": "last-30-days", "lat": 40.10973902787795, "lon": -179.03761373912923, "alt_km": 409.8065763518189, "timestamp": "2025-12-13T13:34:33.864270+00:00", "meta": {"OBJECT_NAME": "STARLINK-35814", "OBJECT_ID": "2025-268V", "EPOCH": "2025-12-12T20:00:01.999872", "MEAN_MOTION": 15.50628497, "ECCENTRICITY": 0.00013959, "INCLINATION": 43.0003, "RA_OF_ASC_NODE": 120.5622, "ARG_OF_PERICENTER": 272.7361, "MEAN_ANOMALY": 25.5307, "EPHEMERIS_TYPE": 0, "CLASSIFICATION_TYPE": "U", "NORAD_CAT_ID": 66576, "ELEMENT_SET_NO": 999, "REV_AT_EPOCH": 468, "BSTAR": -0.0017754638, "MEAN_MOTION_DOT": -0.00103318, "MEAN_MOTION_DDOT": 0}, "tle": {"line1": "1 66576U 25268V   25346.83335648 -.00103318  00000+0 -17755-2 0  9997", "line2": "2 66576  43.0003 120.5622 0001395 272.7361  25.5307 15.50628497  4683"}}, "geometry": {"type": "Point", "coordinates": [-179.03761373912923, 40.10973902787795]}}, {"type": "Feature", "properties": {"norad_id": 66577, "name": "STARLINK-35815", "group": "last-30-days", "lat": 40.64994649806342, "lon": -176.59473160600314, "alt_km": 409.5919307729091, "timestamp": "2025-12-13T13:34:33.864279+00:00", "meta": {"OBJECT_NAME": "STARLINK-35815", "OBJECT_ID": "2025-268W", "EPOCH": "2025-12-12T20:00:01.999872", "MEAN_MOTION": 15.50599502, "ECCENTRICITY": 0.00015277, "INCLINATION": 43.0003, "RA_OF_ASC_NODE": 120.5575, "ARG_OF_PERICENTER": 285.8694, "MEAN_ANOMALY": 14.3273, "EPHEMERIS_TYPE": 0, "CLASSIFICATION_TYPE": "U", "NORAD_CAT_ID": 66577, "ELEMENT_SET_NO": 999, "REV_AT_EPOCH": 468, "BSTAR": -0.0010556277, "MEAN_MOTION_DOT": -0.00061829, "MEAN_MOTION_DDOT": 0}, "tle": {"line1": "1 66577U 25268W   25346.83335648 -.00061829  00000+0 -10556-2 0  9990", "line2": "2 66577  43.0003 120.5575 0001527 285.8694  14.3273 15.50599502  4684"}}, "geometry": {"type": "Point", "coordinates": [-176.59473160600314, 40.64994649806342]}}]}